{
  "type": "FeatureCollection",
  "features": [
    {
      "type": "Feature",
      "properties": {
        "name": "Punjab",
        "state": "Punjab, India"
      },
      "geometry": {
        "type": "Polygon",
        "coordinates": [
          [
            [74.5, 29.5],
            [76.8, 29.5],
            [77.0, 30.2],
            [77.0, 30.9],
            [76.8, 31.5],
            [76.5, 32.0],
            [76.0, 32.5],
            [75.5, 32.6],
            [75.0, 32.5],
            [74.5, 32.3],
            [74.2, 31.8],
            [74.0, 31.2],
            [74.0, 30.5],
            [74.2, 30.0],
            [74.5, 29.5]
          ]
        ]
      }
    }
  ]
}
